COSMOS 2433 (720)       
1 32275U 07052A   23060.60029411 -.00000095  00000+0  00000+0 0  9990
2 32275  66.0589 356.1351 0003997 280.1279 335.2507  2.13104068119445
COSMOS 2432 (719)       
1 32276U 07052B   23060.66779863 -.00000095  00000+0  00000+0 0  9990
2 32276  66.0741 356.2377 0012046 326.1474 288.6029  2.13103364119446
COSMOS 2434 (721)       
1 32393U 07065A   23060.41436853  .00000075  00000+0  00000+0 0  9993
2 32393  64.3512 232.6637 0005149  75.8160 287.4026  2.13103101118155
COSMOS 2436 (723)       
1 32395U 07065C   23059.81508243  .00000079  00000+0  00000+0 0  9994
2 32395  64.3599 232.7440 0016918   8.9597  30.1479  2.13102863118072
COSMOS 2456 (730)       
1 36111U 09070A   23061.19383534  .00000004  00000+0  00000+0 0  9998
2 36111  64.4262 112.2004 0004553 298.0854 105.0126  2.13099080102832
COSMOS 2457 (733)       
1 36112U 09070B   23060.61884635 -.00000003  00000+0  00000+0 0  9993
2 36112  64.4088 112.0905 0004818 183.5055 267.8168  2.13101277102826
COSMOS 2460 (732)       
1 36402U 10007C   23061.24236969 -.00000094  00000+0  00000+0 0  9998
2 36402  65.9270 354.8611 0002418 327.5630 228.3835  2.13106300101183
COSMOS 2476 (744)       
1 37867U 11064A   23060.72131799 -.00000003  00000+0  00000+0 0  9995
2 37867  64.7098 113.6726 0023360 237.6463  70.6884  2.13101814 88165
COSMOS 2477 (745)       
1 37868U 11064B   23060.79545897 -.00000002  00000+0  00000+0 0  9990
2 37868  64.7212 113.7388 0020715 239.2915 303.8808  2.13101555 88125
COSMOS 2475 (743)       
1 37869U 11064C   23060.62060413 -.00000004  00000+0  00000+0 0  9991
2 37869  64.7245 113.7540 0025045 254.4444 112.8456  2.13101780 88137
COSMOS 2485 (747)       
1 39155U 13019A   23060.65786858 -.00000004  00000+0  00000+0 0  9994
2 39155  64.8718 114.1584 0023744 233.9902  70.0316  2.13101754 76634
COSMOS 2492 (754)       
1 39620U 14012A   23060.11845020 -.00000096  00000+0  00000+0 0  9994
2 39620  65.8108 354.5429 0015119 322.2808 322.2288  2.13103141 69574
COSMOS 2500 (755)       
1 40001U 14032A   23060.63942205 -.00000095  00000+0  00000+0 0  9990
2 40001  65.7501 354.3671 0005427 223.6063 318.5215  2.13102434 67806
COSMOS 2501 (702K)      
1 40315U 14075A   23060.64988184  .00000071  00000+0  00000+0 0  9995
2 40315  63.6540 232.1738 0017212 203.7538 155.6296  2.13101339 64205
COSMOS 2514 (751)       
1 41330U 16008A   23060.16172764 -.00000096  00000+0  00000+0 0  9995
2 41330  65.5482 354.0116 0008902 223.5538 136.3817  2.13102751 54965
COSMOS 2516 (753)       
1 41554U 16032A   23058.87383595  .00000080  00000+0  00000+0 0  9993
2 41554  63.8832 232.5832 0014078 211.7797 148.1304  2.13106467 52547
COSMOS 2522 (752)       
1 42939U 17055A   23060.48466374  .00000074  00000+0  00000+0 0  9997
2 42939  64.1163 232.9982 0004950 236.0749 132.1924  2.13101939 42337
COSMOS 2527 (756)       
1 43508U 18053A   23060.79635546 -.00000002  00000+0  00000+0 0  9994
2 43508  65.0337 114.2085 0009444 234.4699  44.8696  2.13102527 36622
COSMOS 2529 (757)       
1 43687U 18086A   23060.55471175  .00000075  00000+0  00000+0 0  9997
2 43687  64.3314 233.3811 0006794 271.3834 106.0961  2.13102053 33642
COSMOS 2534 (758)       
1 44299U 19030A   23060.64923282  .00000074  00000+0  00000+0 0  9997
2 44299  64.4038 233.2871 0009826 295.6546 288.6780  2.13101915 29286
COSMOS 2544 (759)       
1 44850U 19088A   23060.37341041 -.00000006  00000+0  16595+1 0  9993
2 44850  65.0195 114.0685 0013985 257.3846 100.7361  2.13102327 25045
COSMOS 2545 (760)       
1 45358U 20018A   23060.28138251 -.00000097  00000+0  00000+0 0  9992
2 45358  64.8877 354.4069 0009982 260.5197 236.1786  2.13102666 23001
COSMOS 2547 (705K)      
1 46805U 20075A   23060.58549019  .00000074  00000+0  00000+0 0  9998
2 46805  64.6293 232.7896 0005152 240.1514 343.8387  2.13103020 18256
COSMOS 2557 (706K)      
1 52984U 22075A   23059.85565981 -.00000096  00000+0  10000-3 0  9999
2 52984  64.7974 356.5999 0013545 286.5235 334.2090  2.13101741  5031
COSMOS 2559 (707K)      
1 54031U 22130A   23060.73312605 -.00000096  00000+0  00000+0 0  9993
2 54031  64.7681 356.7028 0006121 240.5333  18.4780  2.13100972  3037
COSMOS 2564 (761)       
1 54377U 22161A   23060.38259846  .00000076  00000+0  00000+0 0  9995
2 54377  64.7708 232.8154 0006726 209.0348 351.6470  2.13102171  1973
